[{"OBJECT_NAME":"STARLINK-36361","OBJECT_ID":"2026-035X","EPOCH":"2026-03-07T04:00:03.000096","MEAN_MOTION":15.9426364,"ECCENTRICITY":0.0001398,"INCLINATION":97.2701,"RA_OF_ASC_NODE":358.346,"ARG_OF_PERICENTER":115.5937,"MEAN_ANOMALY":122.1186,"EPHEMERIS_TYPE":0,"CLASSIFICATION_TYPE":"U","NORAD_CAT_ID":67900,"ELEMENT_SET_NO":999,"REV_AT_EPOCH":335,"BSTAR":-0.003576,"MEAN_MOTION_DOT":-0.01317622,"MEAN_MOTION_DDOT":0.00051348},{"OBJECT_NAME":"STARLINK-36336","OBJECT_ID":"2026-035Y","EPOCH":"2026-03-07T04:00:03.000096","MEAN_MOTION":15.94352128,"ECCENTRICITY":0.0001336,"INCLINATION":97.2711,"RA_OF_ASC_NODE":358.3527,"ARG_OF_PERICENTER":115.7285,"MEAN_ANOMALY":136.3236,"EPHEMERIS_TYPE":0,"CLASSIFICATION_TYPE":"U","NORAD_CAT_ID":67901,"ELEMENT_SET_NO":999,"REV_AT_EPOCH":340,"BSTAR":-0.003608,"MEAN_MOTION_DOT":-0.01335439,"MEAN_MOTION_DDOT":0.00052688},{"OBJECT_NAME":"STARLINK-36876","OBJECT_ID":"2026-035Z","EPOCH":"2026-03-07T04:00:03.000096","MEAN_MOTION":15.94299305,"ECCENTRICITY":0.0001393,"INCLINATION":97.2708,"RA_OF_ASC_NODE":358.3489,"ARG_OF_PERICENTER":119.2288,"MEAN_ANOMALY":122.7318,"EPHEMERIS_TYPE":0,"CLASSIFICATION_TYPE":"U","NORAD_CAT_ID":67902,"ELEMENT_SET_NO":999,"REV_AT_EPOCH":335,"BSTAR":-0.0035379,"MEAN_MOTION_DOT":-0.01306151,"MEAN_MOTION_DDOT":0.00050543},{"OBJECT_NAME":"STARLINK-36257","OBJECT_ID":"2026-035AA","EPOCH":"2026-03-07T04:00:03.000096","MEAN_MOTION":15.94350007,"ECCENTRICITY":0.0001138,"INCLINATION":97.2707,"RA_OF_ASC_NODE":358.3497,"ARG_OF_PERICENTER":105.5929,"MEAN_ANOMALY":140.7904,"EPHEMERIS_TYPE":0,"CLASSIFICATION_TYPE":"U","NORAD_CAT_ID":67903,"ELEMENT_SET_NO":999,"REV_AT_EPOCH":340,"BSTAR":-0.0036169,"MEAN_MOTION_DOT":-0.01338504,"MEAN_MOTION_DDOT":0.00052911},{"OBJECT_NAME":"STARLINK-36912","OBJECT_ID":"2026-038A","EPOCH":"2026-03-07T04:00:03.000096","MEAN_MOTION":15.95742011,"ECCENTRICITY":0.0001027,"INCLINATION":97.2751,"RA_OF_ASC_NODE":76.2531,"ARG_OF_PERICENTER":75.466,"MEAN_ANOMALY":270.2215,"EPHEMERIS_TYPE":0,"CLASSIFICATION_TYPE":"U","NORAD_CAT_ID":67961,"ELEMENT_SET_NO":999,"REV_AT_EPOCH":279,"BSTAR":-0.0042481,"MEAN_MOTION_DOT":-0.01688452,"MEAN_MOTION_DDOT":0.00082586},{"OBJECT_NAME":"STARLINK-36881","OBJECT_ID":"2026-038B","EPOCH":"2026-03-07T04:00:03.000096","MEAN_MOTION":15.95820975,"ECCENTRICITY":9.42e-5,"INCLINATION":97.2748,"RA_OF_ASC_NODE":76.2539,"ARG_OF_PERICENTER":86.1696,"MEAN_ANOMALY":261.81,"EPHEMERIS_TYPE":0,"CLASSIFICATION_TYPE":"U","NORAD_CAT_ID":67962,"ELEMENT_SET_NO":999,"REV_AT_EPOCH":279,"BSTAR":-0.0041989,"MEAN_MOTION_DOT":-0.01676102,"MEAN_MOTION_DDOT":0.00081533},{"OBJECT_NAME":"STARLINK-36357","OBJECT_ID":"2026-038C","EPOCH":"2026-03-07T04:00:03.000096","MEAN_MOTION":15.96069929,"ECCENTRICITY":0.0001139,"INCLINATION":97.2746,"RA_OF_ASC_NODE":76.2566,"ARG_OF_PERICENTER":68.1965,"MEAN_ANOMALY":285.9733,"EPHEMERIS_TYPE":0,"CLASSIFICATION_TYPE":"U","NORAD_CAT_ID":67963,"ELEMENT_SET_NO":999,"REV_AT_EPOCH":279,"BSTAR":-0.0041207,"MEAN_MOTION_DOT":-0.01667207,"MEAN_MOTION_DDOT":0.00080944},{"OBJECT_NAME":"STARLINK-36349","OBJECT_ID":"2026-038D","EPOCH":"2026-03-07T04:00:03.000096","MEAN_MOTION":15.95948946,"ECCENTRICITY":0.0001186,"INCLINATION":97.2743,"RA_OF_ASC_NODE":76.2549,"ARG_OF_PERICENTER":67.1785,"MEAN_ANOMALY":283.8933,"EPHEMERIS_TYPE":0,"CLASSIFICATION_TYPE":"U","NORAD_CAT_ID":67964,"ELEMENT_SET_NO":999,"REV_AT_EPOCH":279,"BSTAR":-0.0041756,"MEAN_MOTION_DOT":-0.01678332,"MEAN_MOTION_DDOT":0.00081847},{"OBJECT_NAME":"STARLINK-36806","OBJECT_ID":"2026-038E","EPOCH":"2026-03-07T04:00:03.000096","MEAN_MOTION":15.96215069,"ECCENTRICITY":0.0001015,"INCLINATION":97.2738,"RA_OF_ASC_NODE":76.2579,"ARG_OF_PERICENTER":72.502,"MEAN_ANOMALY":285.2624,"EPHEMERIS_TYPE":0,"CLASSIFICATION_TYPE":"U","NORAD_CAT_ID":67965,"ELEMENT_SET_NO":999,"REV_AT_EPOCH":279,"BSTAR":-0.0040821,"MEAN_MOTION_DOT":-0.01664532,"MEAN_MOTION_DDOT":0.00080828},{"OBJECT_NAME":"STARLINK-36820","OBJECT_ID":"2026-038F","EPOCH":"2026-03-07T04:00:03.000096","MEAN_MOTION":15.9633264,"ECCENTRICITY":0.0001071,"INCLINATION":97.2739,"RA_OF_ASC_NODE":76.2594,"ARG_OF_PERICENTER":81.388,"MEAN_ANOMALY":279.3842,"EPHEMERIS_TYPE":0,"CLASSIFICATION_TYPE":"U","NORAD_CAT_ID":67966,"ELEMENT_SET_NO":999,"REV_AT_EPOCH":279,"BSTAR":-0.0040196,"MEAN_MOTION_DOT":-0.01649677,"MEAN_MOTION_DDOT":0.00079591},{"OBJECT_NAME":"STARLINK-36819","OBJECT_ID":"2026-038G","EPOCH":"2026-03-07T04:00:03.000096","MEAN_MOTION":15.96467186,"ECCENTRICITY":0.000101,"INCLINATION":97.2737,"RA_OF_ASC_NODE":76.2608,"ARG_OF_PERICENTER":73.2026,"MEAN_ANOMALY":290.815,"EPHEMERIS_TYPE":0,"CLASSIFICATION_TYPE":"U","NORAD_CAT_ID":67967,"ELEMENT_SET_NO":999,"REV_AT_EPOCH":279,"BSTAR":-0.0040214,"MEAN_MOTION_DOT":-0.01662269,"MEAN_MOTION_DDOT":0.00080842},{"OBJECT_NAME":"STARLINK-36812","OBJECT_ID":"2026-038H","EPOCH":"2026-03-07T04:00:03.000096","MEAN_MOTION":15.96579765,"ECCENTRICITY":0.0001087,"INCLINATION":97.2733,"RA_OF_ASC_NODE":76.2615,"ARG_OF_PERICENTER":77.5438,"MEAN_ANOMALY":289.2454,"EPHEMERIS_TYPE":0,"CLASSIFICATION_TYPE":"U","NORAD_CAT_ID":67968,"ELEMENT_SET_NO":999,"REV_AT_EPOCH":279,"BSTAR":-0.003995,"MEAN_MOTION_DOT":-0.01661506,"MEAN_MOTION_DDOT":0.00080871},{"OBJECT_NAME":"STARLINK-36709","OBJECT_ID":"2026-038J","EPOCH":"2026-03-07T04:00:03.000096","MEAN_MOTION":15.96843017,"ECCENTRICITY":0.0001041,"INCLINATION":97.2733,"RA_OF_ASC_NODE":76.2645,"ARG_OF_PERICENTER":71.9466,"MEAN_ANOMALY":301.4786,"EPHEMERIS_TYPE":0,"CLASSIFICATION_TYPE":"U","NORAD_CAT_ID":67969,"ELEMENT_SET_NO":999,"REV_AT_EPOCH":279,"BSTAR":-0.0039061,"MEAN_MOTION_DOT":-0.01648002,"MEAN_MOTION_DDOT":0.00079878},{"OBJECT_NAME":"STARLINK-36319","OBJECT_ID":"2026-038K","EPOCH":"2026-03-07T04:00:03.000096","MEAN_MOTION":15.96715515,"ECCENTRICITY":0.0001146,"INCLINATION":97.2732,"RA_OF_ASC_NODE":76.2629,"ARG_OF_PERICENTER":75.4074,"MEAN_ANOMALY":294.6735,"EPHEMERIS_TYPE":0,"CLASSIFICATION_TYPE":"U","NORAD_CAT_ID":67970,"ELEMENT_SET_NO":999,"REV_AT_EPOCH":276,"BSTAR":-0.0039715,"MEAN_MOTION_DOT":-0.01663881,"MEAN_MOTION_DDOT":0.00081205},{"OBJECT_NAME":"STARLINK-36710","OBJECT_ID":"2026-038L","EPOCH":"2026-03-07T04:00:03.000096","MEAN_MOTION":15.97002839,"ECCENTRICITY":0.0001013,"INCLINATION":97.2729,"RA_OF_ASC_NODE":76.2662,"ARG_OF_PERICENTER":78.9229,"MEAN_ANOMALY":298.5574,"EPHEMERIS_TYPE":0,"CLASSIFICATION_TYPE":"U","NORAD_CAT_ID":67971,"ELEMENT_SET_NO":999,"REV_AT_EPOCH":279,"BSTAR":-0.0038105,"MEAN_MOTION_DOT":-0.01622015,"MEAN_MOTION_DDOT":0.00077684},{"OBJECT_NAME":"STARLINK-36894","OBJECT_ID":"2026-038M","EPOCH":"2026-03-07T04:00:03.000096","MEAN_MOTION":15.97145032,"ECCENTRICITY":0.0001169,"INCLINATION":97.2724,"RA_OF_ASC_NODE":76.2676,"ARG_OF_PERICENTER":66.6088,"MEAN_ANOMALY":314.2158,"EPHEMERIS_TYPE":0,"CLASSIFICATION_TYPE":"U","NORAD_CAT_ID":67972,"ELEMENT_SET_NO":999,"REV_AT_EPOCH":279,"BSTAR":-0.0038121,"MEAN_MOTION_DOT":-0.01635176,"MEAN_MOTION_DDOT":0.00078982},{"OBJECT_NAME":"STARLINK-36900","OBJECT_ID":"2026-038N","EPOCH":"2026-03-07T04:00:03.000096","MEAN_MOTION":15.97421921,"ECCENTRICITY":0.0001008,"INCLINATION":97.2723,"RA_OF_ASC_NODE":76.2703,"ARG_OF_PERICENTER":70.4774,"MEAN_ANOMALY":317.0282,"EPHEMERIS_TYPE":0,"CLASSIFICATION_TYPE":"U","NORAD_CAT_ID":67973,"ELEMENT_SET_NO":999,"REV_AT_EPOCH":279,"BSTAR":-0.0037553,"MEAN_MOTION_DOT":-0.01635331,"MEAN_MOTION_DDOT":0.00079234},{"OBJECT_NAME":"STARLINK-36901","OBJECT_ID":"2026-038P","EPOCH":"2026-03-07T04:00:03.000096","MEAN_MOTION":15.9727214,"ECCENTRICITY":0.0001143,"INCLINATION":97.2723,"RA_OF_ASC_NODE":76.2686,"ARG_OF_PERICENTER":69.3185,"MEAN_ANOMALY":314.6762,"EPHEMERIS_TYPE":0,"CLASSIFICATION_TYPE":"U","NORAD_CAT_ID":67974,"ELEMENT_SET_NO":999,"REV_AT_EPOCH":279,"BSTAR":-0.0037644,"MEAN_MOTION_DOT":-0.01626057,"MEAN_MOTION_DDOT":0.00078273},{"OBJECT_NAME":"STARLINK-36883","OBJECT_ID":"2026-038Q","EPOCH":"2026-03-07T04:00:03.000096","MEAN_MOTION":15.97980616,"ECCENTRICITY":0.0001154,"INCLINATION":97.2714,"RA_OF_ASC_NODE":76.276,"ARG_OF_PERICENTER":67.2527,"MEAN_ANOMALY":333.8054,"EPHEMERIS_TYPE":0,"CLASSIFICATION_TYPE":"U","NORAD_CAT_ID":67975,"ELEMENT_SET_NO":999,"REV_AT_EPOCH":279,"BSTAR":-0.0035963,"MEAN_MOTION_DOT":-0.01615117,"MEAN_MOTION_DDOT":0.00077896},{"OBJECT_NAME":"STARLINK-36880","OBJECT_ID":"2026-038R","EPOCH":"2026-03-07T04:00:03.000096","MEAN_MOTION":15.9756334,"ECCENTRICITY":0.000113,"INCLINATION":97.272,"RA_OF_ASC_NODE":76.2717,"ARG_OF_PERICENTER":72.068,"MEAN_ANOMALY":318.8478,"EPHEMERIS_TYPE":0,"CLASSIFICATION_TYPE":"U","NORAD_CAT_ID":67976,"ELEMENT_SET_NO":999,"REV_AT_EPOCH":279,"BSTAR":-0.0037127,"MEAN_MOTION_DOT":-0.01629444,"MEAN_MOTION_DDOT":0.00078826},{"OBJECT_NAME":"STARLINK-36904","OBJECT_ID":"2026-038S","EPOCH":"2026-03-07T04:00:03.000096","MEAN_MOTION":15.97842257,"ECCENTRICITY":0.0001177,"INCLINATION":97.2714,"RA_OF_ASC_NODE":76.2742,"ARG_OF_PERICENTER":66.2561,"MEAN_ANOMALY":331.4064,"EPHEMERIS_TYPE":0,"CLASSIFICATION_TYPE":"U","NORAD_CAT_ID":67977,"ELEMENT_SET_NO":999,"REV_AT_EPOCH":279,"BSTAR":-0.0036503,"MEAN_MOTION_DOT":-0.0162681,"MEAN_MOTION_DDOT":0.00078829},{"OBJECT_NAME":"STARLINK-36364","OBJECT_ID":"2026-038T","EPOCH":"2026-03-07T04:00:03.000096","MEAN_MOTION":15.98334069,"ECCENTRICITY":0.0001177,"INCLINATION":97.2708,"RA_OF_ASC_NODE":76.2791,"ARG_OF_PERICENTER":60.7215,"MEAN_ANOMALY":348.3105,"EPHEMERIS_TYPE":0,"CLASSIFICATION_TYPE":"U","NORAD_CAT_ID":67978,"ELEMENT_SET_NO":999,"REV_AT_EPOCH":279,"BSTAR":-0.0035973,"MEAN_MOTION_DOT":-0.01647007,"MEAN_MOTION_DDOT":0.00081099},{"OBJECT_NAME":"STARLINK-36359","OBJECT_ID":"2026-038U","EPOCH":"2026-03-07T04:00:03.000096","MEAN_MOTION":15.97682347,"ECCENTRICITY":0.00011,"INCLINATION":97.2716,"RA_OF_ASC_NODE":76.2723,"ARG_OF_PERICENTER":69.6155,"MEAN_ANOMALY":324.1559,"EPHEMERIS_TYPE":0,"CLASSIFICATION_TYPE":"U","NORAD_CAT_ID":67979,"ELEMENT_SET_NO":999,"REV_AT_EPOCH":279,"BSTAR":-0.0037031,"MEAN_MOTION_DOT":-0.01635779,"MEAN_MOTION_DDOT":0.000795}]
